{
  "type": "FeatureCollection",
  "features": [
    {
      "type": "Feature",
      "properties": {
        "norad_id": 34816,
        "name": "COSMOS 2251 DEB",
        "group": "cosmos-2251-debris",
        "lat": 28.528637602135376,
        "lon": 128.39024023195032,
        "alt_km": 1280.4063180737476,
        "timestamp": "2025-12-27T07:26:25.615800+00:00",
        "meta_object_name": "COSMOS 2251 DEB",
        "meta_object_id": "1993-036ABF",
        "meta_epoch": "2025-12-25T01:06:13.254336",
        "meta_mean_motion": 13.58358364,
        "meta_eccentricity": 0.03729236,
        "meta_inclination": 73.8874,
        "meta_ra_of_asc_node": 123.043,
        "meta_arg_of_pericenter": 185.3949,
        "meta_mean_anomaly": 299.3527,
        "meta_ephemeris_type": 0,
        "meta_classification_type": "U",
        "meta_norad_cat_id": 34816,
        "meta_element_set_no": 999,
        "meta_rev_at_epoch": 82950,
        "meta_bstar": 0.0014772062,
        "meta_mean_motion_dot": 1.67e-05,
        "meta_mean_motion_ddot": 0,
        "tle_line1": "1 34816U 93036ABF 25359.04598674  .00001670  00000+0  14772-2 0  9996",
        "tle_line2": "2 34816  73.8874 123.0430 0372923 185.3949 299.3527 13.58358364829506"
      },
      "geometry": {
        "type": "Point",
        "coordinates": [
          128.39024023195032,
          28.528637602135376
        ]
      }
    },
    {
      "type": "Feature",
      "properties": {
        "norad_id": 34818,
        "name": "COSMOS 2251 DEB",
        "group": "cosmos-2251-debris",
        "lat": 21.73258259860785,
        "lon": 83.59916214970133,
        "alt_km": 785.4788025951348,
        "timestamp": "2025-12-27T07:26:25.615811+00:00",
        "meta_object_name": "COSMOS 2251 DEB",
        "meta_object_id": "1993-036ABH",
        "meta_epoch": "2025-12-26T04:41:15.553824",
        "meta_mean_motion": 14.36982494,
        "meta_eccentricity": 0.00246969,
        "meta_inclination": 74.0365,
        "meta_ra_of_asc_node": 272.1995,
        "meta_arg_of_pericenter": 344.861,
        "meta_mean_anomaly": 168.1819,
        "meta_ephemeris_type": 0,
        "meta_classification_type": "U",
        "meta_norad_cat_id": 34818,
        "meta_element_set_no": 999,
        "meta_rev_at_epoch": 87563,
        "meta_bstar": 0.00018428348,
        "meta_mean_motion_dot": 5.22e-06,
        "meta_mean_motion_ddot": 0,
        "tle_line1": "1 34818U 93036ABH 25360.19531891  .00000522  00000+0  18428-3 0  9992",
        "tle_line2": "2 34818  74.0365 272.1995 0024696 344.8610 168.1819 14.36982494875632"
      },
      "geometry": {
        "type": "Point",
        "coordinates": [
          83.59916214970133,
          21.73258259860785
        ]
      }
    },
    {
      "type": "Feature",
      "properties": {
        "norad_id": 34819,
        "name": "COSMOS 2251 DEB",
        "group": "cosmos-2251-debris",
        "lat": 52.01036460704311,
        "lon": 136.17341091059524,
        "alt_km": 684.132573177093,
        "timestamp": "2025-12-27T07:26:25.615821+00:00",
        "meta_object_name": "COSMOS 2251 DEB",
        "meta_object_id": "1993-036ABJ",
        "meta_epoch": "2025-12-26T16:44:10.271904",
        "meta_mean_motion": 14.6418179,
        "meta_eccentricity": 0.00151285,
        "meta_inclination": 74.0184,
        "meta_ra_of_asc_node": 115.8233,
        "meta_arg_of_pericenter": 211.1605,
        "meta_mean_anomaly": 215.9065,
        "meta_ephemeris_type": 0,
        "meta_classification_type": "U",
        "meta_norad_cat_id": 34819,
        "meta_element_set_no": 999,
        "meta_rev_at_epoch": 88433,
        "meta_bstar": 0.001725678,
        "meta_mean_motion_dot": 9.077e-05,
        "meta_mean_motion_ddot": 0,
        "tle_line1": "1 34819U 93036ABJ 25360.69734111  .00009077  00000+0  17257-2 0  9990",
        "tle_line2": "2 34819  74.0184 115.8233 0015128 211.1605 215.9065 14.64181790884332"
      },
      "geometry": {
        "type": "Point",
        "coordinates": [
          136.17341091059524,
          52.01036460704311
        ]
      }
    },
    {
      "type": "Feature",
      "properties": {
        "norad_id": 34823,
        "name": "COSMOS 2251 DEB",
        "group": "cosmos-2251-debris",
        "lat": -14.354499253538277,
        "lon": 70.49716473095975,
        "alt_km": 821.0454676995041,
        "timestamp": "2025-12-27T07:26:25.615832+00:00",
        "meta_object_name": "COSMOS 2251 DEB",
        "meta_object_id": "1993-036ABN",
        "meta_epoch": "2025-12-26T21:36:36.032256",
        "meta_mean_motion": 14.55014115,
        "meta_eccentricity": 0.01536654,
        "meta_inclination": 74.0414,
        "meta_ra_of_asc_node": 75.4718,
        "meta_arg_of_pericenter": 156.7018,
        "meta_mean_anomaly": 204.1211,
        "meta_ephemeris_type": 0,
        "meta_classification_type": "U",
        "meta_norad_cat_id": 34823,
        "meta_element_set_no": 999,
        "meta_rev_at_epoch": 88587,
        "meta_bstar": 0.00058321874,
        "meta_mean_motion_dot": 2.914e-05,
        "meta_mean_motion_ddot": 0,
        "tle_line1": "1 34823U 93036ABN 25360.90041704  .00002914  00000+0  58322-3 0  9990",
        "tle_line2": "2 34823  74.0414  75.4718 0153665 156.7018 204.1211 14.55014115885872"
      },
      "geometry": {
        "type": "Point",
        "coordinates": [
          70.49716473095975,
          -14.354499253538277
        ]
      }
    },
    {
      "type": "Feature",
      "properties": {
        "norad_id": 34845,
        "name": "COSMOS 2251 DEB",
        "group": "cosmos-2251-debris",
        "lat": -15.94823725141799,
        "lon": -54.14890772074662,
        "alt_km": 741.609705360479,
        "timestamp": "2025-12-27T07:26:25.615842+00:00",
        "meta_object_name": "COSMOS 2251 DEB",
        "meta_object_id": "1993-036ABP",
        "meta_epoch": "2025-12-24T15:25:52.110336",
        "meta_mean_motion": 14.4588243,
        "meta_eccentricity": 0.00226897,
        "meta_inclination": 74.0249,
        "meta_ra_of_asc_node": 126.132,
        "meta_arg_of_pericenter": 285.329,
        "meta_mean_anomaly": 74.5361,
        "meta_ephemeris_type": 0,
        "meta_classification_type": "U",
        "meta_norad_cat_id": 34845,
        "meta_element_set_no": 999,
        "meta_rev_at_epoch": 87638,
        "meta_bstar": 0.00029040944,
        "meta_mean_motion_dot": 1.008e-05,
        "meta_mean_motion_ddot": 0,
        "tle_line1": "1 34845U 93036ABP 25358.64296424  .00001008  00000+0  29041-3 0  9992",
        "tle_line2": "2 34845  74.0249 126.1320 0022689 285.3290  74.5361 14.45882430876380"
      },
      "geometry": {
        "type": "Point",
        "coordinates": [
          -54.14890772074662,
          -15.94823725141799
        ]
      }
    },
    {
      "type": "Feature",
      "properties": {
        "norad_id": 34846,
        "name": "COSMOS 2251 DEB",
        "group": "cosmos-2251-debris",
        "lat": -26.969362718536207,
        "lon": 62.90591275032645,
        "alt_km": 740.1691456559374,
        "timestamp": "2025-12-27T07:26:25.615852+00:00",
        "meta_object_name": "COSMOS 2251 DEB",
        "meta_object_id": "1993-036ABQ",
        "meta_epoch": "2025-12-26T22:11:05.998272",
        "meta_mean_motion": 14.47291744,
        "meta_eccentricity": 0.00262302,
        "meta_inclination": 74.0297,
        "meta_ra_of_asc_node": 235.2479,
        "meta_arg_of_pericenter": 299.8878,
        "meta_mean_anomaly": 59.9675,
        "meta_ephemeris_type": 0,
        "meta_classification_type": "U",
        "meta_norad_cat_id": 34846,
        "meta_element_set_no": 999,
        "meta_rev_at_epoch": 87609,
        "meta_bstar": 0.00081840931,
        "meta_mean_motion_dot": 2.981e-05,
        "meta_mean_motion_ddot": 0,
        "tle_line1": "1 34846U 93036ABQ 25360.92437498  .00002981  00000+0  81841-3 0  9992",
        "tle_line2": "2 34846  74.0297 235.2479 0026230 299.8878  59.9675 14.47291744876096"
      },
      "geometry": {
        "type": "Point",
        "coordinates": [
          62.90591275032645,
          -26.969362718536207
        ]
      }
    },
    {
      "type": "Feature",
      "properties": {
        "norad_id": 34852,
        "name": "COSMOS 2251 DEB",
        "group": "cosmos-2251-debris",
        "lat": 72.29108073090369,
        "lon": -7.54684207303255,
        "alt_km": 767.293013035297,
        "timestamp": "2025-12-27T07:26:25.615863+00:00",
        "meta_object_name": "COSMOS 2251 DEB",
        "meta_object_id": "1993-036ABW",
        "meta_epoch": "2025-12-24T08:48:51.292512",
        "meta_mean_motion": 14.37013481,
        "meta_eccentricity": 0.00167051,
        "meta_inclination": 74.0323,
        "meta_ra_of_asc_node": 241.5883,
        "meta_arg_of_pericenter": 342.3569,
        "meta_mean_anomaly": 17.7002,
        "meta_ephemeris_type": 0,
        "meta_classification_type": "U",
        "meta_norad_cat_id": 34852,
        "meta_element_set_no": 999,
        "meta_rev_at_epoch": 87701,
        "meta_bstar": 0.00010991472,
        "meta_mean_motion_dot": 3e-06,
        "meta_mean_motion_ddot": 0,
        "tle_line1": "1 34852U 93036ABW 25358.36726033  .00000300  00000+0  10991-3 0  9991",
        "tle_line2": "2 34852  74.0323 241.5883 0016705 342.3569  17.7002 14.37013481877017"
      },
      "geometry": {
        "type": "Point",
        "coordinates": [
          -7.54684207303255,
          72.29108073090369
        ]
      }
    }
  ]
}